LANDSAT 9               
1 49260U 21088A   24266.20109667  .00001012  00000+0  23448-3 0  9998
2 49260  98.2233 334.5930 0001212  87.5943 272.5394 14.57129055158813
